[
    {
        "Altitude(m)": 703416.0022523666,
        "Argument of Periapsis(deg)": 0.0022780242373254137,
        "Eccentricity": 0.0,
        "Inclination(deg)": 45.0,
        "Latitude(deg)": 24.028224539415568,
        "Longitude(deg)": 41.192160544321524,
        "Mean Anomaly(deg)": 35.033943329496154,
        "RAAN(deg)": 114.99784961170836,
        "Satellite Name": "Constellation 1 508",
        "Satellite Number": 508,
        "Semi-Major Axis(m)": 7083131.272910544,
        "Time(s)": 38
    },
    {
        "Altitude(m)": 703420.552638141,
        "Argument of Periapsis(deg)": 0.002337972243570819,
        "Eccentricity": 0.0,
        "Inclination(deg)": 45.0,
        "Latitude(deg)": 24.066903860594795,
        "Longitude(deg)": 41.23940549505663,
        "Mean Anomaly(deg)": 35.094644469746065,
        "RAAN(deg)": 114.99779302254278,
        "Satellite Name": "Constellation 1 508",
        "Satellite Number": 508,
        "Semi-Major Axis(m)": 7083131.272910544,
        "Time(s)": 39
    },
    {
        "Altitude(m)": 703425.1134488252,
        "Argument of Periapsis(deg)": 0.0023979202498162246,
        "Eccentricity": 0.0,
        "Inclination(deg)": 45.0,
        "Latitude(deg)": 24.105565755929156,
        "Longitude(deg)": 41.28668123506658,
        "Mean Anomaly(deg)": 35.155345609995955,
        "RAAN(deg)": 114.99773643337721,
        "Satellite Name": "Constellation 1 508",
        "Satellite Number": 508,
        "Semi-Major Axis(m)": 7083131.272910544,
        "Time(s)": 40
    },
    {
        "Altitude(m)": 703429.6846482828,
        "Argument of Periapsis(deg)": 0.00245786825606163,
        "Eccentricity": 0.0,
        "Inclination(deg)": 45.0,
        "Latitude(deg)": 24.144210183797586,
        "Longitude(deg)": 41.33398782475359,
        "Mean Anomaly(deg)": 35.216046750245866,
        "RAAN(deg)": 114.99767984421166,
        "Satellite Name": "Constellation 1 508",
        "Satellite Number": 508,
        "Semi-Major Axis(m)": 7083131.272910544,
        "Time(s)": 41
    },
    {
        "Altitude(m)": 703434.266200336,
        "Argument of Periapsis(deg)": 0.002517816262307036,
        "Eccentricity": 0.0,
        "Inclination(deg)": 45.0,
        "Latitude(deg)": 24.18283710251857,
        "Longitude(deg)": 41.38132532453187,
        "Mean Anomaly(deg)": 35.276747890495756,
        "RAAN(deg)": 114.99762325504607,
        "Satellite Name": "Constellation 1 508",
        "Satellite Number": 508,
        "Semi-Major Axis(m)": 7083131.272910544,
        "Time(s)": 42
    },
    {
        "Altitude(m)": 703438.8580687739,
        "Argument of Periapsis(deg)": 0.0025777642685524413,
        "Eccentricity": 0.0,
        "Inclination(deg)": 45.0,
        "Latitude(deg)": 24.22144647035003,
        "Longitude(deg)": 41.428693794827254,
        "Mean Anomaly(deg)": 35.33744903074566,
        "RAAN(deg)": 114.99756666588051,
        "Satellite Name": "Constellation 1 508",
        "Satellite Number": 508,
        "Semi-Major Axis(m)": 7083131.272910544,
        "Time(s)": 43
    },
    {
        "Altitude(m)": 703443.4602173434,
        "Argument of Periapsis(deg)": 0.002637712274797847,
        "Eccentricity": 0.0,
        "Inclination(deg)": 45.0,
        "Latitude(deg)": 24.260038245488907,
        "Longitude(deg)": 41.47609312797985,
        "Mean Anomaly(deg)": 35.39815017099555,
        "RAAN(deg)": 114.99751007671492,
        "Satellite Name": "Constellation 1 508",
        "Satellite Number": 508,
        "Semi-Major Axis(m)": 7083131.272910544,
        "Time(s)": 44
    },
    {
        "Altitude(m)": 703448.07260977,
        "Argument of Periapsis(deg)": 0.0026976602810432526,
        "Eccentricity": 0.0,
        "Inclination(deg)": 45.0,
        "Latitude(deg)": 24.29861238607221,
        "Longitude(deg)": 41.52352372063241,
        "Mean Anomaly(deg)": 35.45885131124546,
        "RAAN(deg)": 114.99745348754936,
        "Satellite Name": "Constellation 1 508",
        "Satellite Number": 508,
        "Semi-Major Axis(m)": 7083131.272910544,
        "Time(s)": 45
    },
    {
        "Altitude(m)": 703452.6952097358,
        "Argument of Periapsis(deg)": 0.0027576082872886585,
        "Eccentricity": 0.0,
        "Inclination(deg)": 45.0,
        "Latitude(deg)": 24.337168850175207,
        "Longitude(deg)": 41.57098546514715,
        "Mean Anomaly(deg)": 35.51955245149537,
        "RAAN(deg)": 114.99739689838381,
        "Satellite Name": "Constellation 1 508",
        "Satellite Number": 508,
        "Semi-Major Axis(m)": 7083131.272910544,
        "Time(s)": 46
    },
    {
        "Altitude(m)": 703457.327980895,
        "Argument of Periapsis(deg)": 0.0028175562935340644,
        "Eccentricity": 0.0,
        "Inclination(deg)": 45.0,
        "Latitude(deg)": 24.375707595812443,
        "Longitude(deg)": 41.618478421993984,
        "Mean Anomaly(deg)": 35.58025359174526,
        "RAAN(deg)": 114.99734030921822,
        "Satellite Name": "Constellation 1 508",
        "Satellite Number": 508,
        "Semi-Major Axis(m)": 7083131.272910544,
        "Time(s)": 47
    },
    {
        "Altitude(m)": 703461.9708868605,
        "Argument of Periapsis(deg)": 0.00287750429977947,
        "Eccentricity": 0.0,
        "Inclination(deg)": 45.0,
        "Latitude(deg)": 24.414228580937415,
        "Longitude(deg)": 41.666002651653535,
        "Mean Anomaly(deg)": 35.64095473199517,
        "RAAN(deg)": 114.99728372005266,
        "Satellite Name": "Constellation 1 508",
        "Satellite Number": 508,
        "Semi-Major Axis(m)": 7083131.272910544,
        "Time(s)": 48
    },
    {
        "Altitude(m)": 703466.6238912188,
        "Argument of Periapsis(deg)": 0.002937452306024875,
        "Eccentricity": 0.0,
        "Inclination(deg)": 45.0,
        "Latitude(deg)": 24.452731763442365,
        "Longitude(deg)": 41.713558214616434,
        "Mean Anomaly(deg)": 35.70165587224506,
        "RAAN(deg)": 114.99722713088711,
        "Satellite Name": "Constellation 1 508",
        "Satellite Number": 508,
        "Semi-Major Axis(m)": 7083131.272910544,
        "Time(s)": 49
    },
    {
        "Altitude(m)": 703471.2869575184,
        "Argument of Periapsis(deg)": 0.0029974003122702807,
        "Eccentricity": 0.0,
        "Inclination(deg)": 45.0,
        "Latitude(deg)": 24.4912171011582,
        "Longitude(deg)": 41.76114517138302,
        "Mean Anomaly(deg)": 35.762357012494945,
        "RAAN(deg)": 114.99717054172152,
        "Satellite Name": "Constellation 1 508",
        "Satellite Number": 508,
        "Semi-Major Axis(m)": 7083131.272910544,
        "Time(s)": 50
    },
    {
        "Altitude(m)": 703475.9600492744,
        "Argument of Periapsis(deg)": 0.0030573483185156866,
        "Eccentricity": 0.0,
        "Inclination(deg)": 45.0,
        "Latitude(deg)": 24.529684551854523,
        "Longitude(deg)": 41.80876358246367,
        "Mean Anomaly(deg)": 35.82305815274483,
        "RAAN(deg)": 114.99711395255596,
        "Satellite Name": "Constellation 1 508",
        "Satellite Number": 508,
        "Semi-Major Axis(m)": 7083131.272910544,
        "Time(s)": 51
    },
    {
        "Altitude(m)": 703480.6431299715,
        "Argument of Periapsis(deg)": 0.003117296324761092,
        "Eccentricity": 0.0,
        "Inclination(deg)": 45.0,
        "Latitude(deg)": 24.56813407323901,
        "Longitude(deg)": 41.856413340280696,
        "Mean Anomaly(deg)": 35.88375929299477,
        "RAAN(deg)": 114.99705736339037,
        "Satellite Name": "Constellation 1 508",
        "Satellite Number": 508,
        "Semi-Major Axis(m)": 7083131.272910544,
        "Time(s)": 52
    },
    {
        "Altitude(m)": 703485.3361630652,
        "Argument of Periapsis(deg)": 0.0031772443310064975,
        "Eccentricity": 0.0,
        "Inclination(deg)": 45.0,
        "Latitude(deg)": 24.60656562295851,
        "Longitude(deg)": 41.904094841556976,
        "Mean Anomaly(deg)": 35.94446043324463,
        "RAAN(deg)": 114.99700077422482,
        "Satellite Name": "Constellation 1 508",
        "Satellite Number": 508,
        "Semi-Major Axis(m)": 7083131.272910544,
        "Time(s)": 53
    },
    {
        "Altitude(m)": 703490.0391119682,
        "Argument of Periapsis(deg)": 0.0032371923372519038,
        "Eccentricity": 0.0,
        "Inclination(deg)": 45.0,
        "Latitude(deg)": 24.644979158597483,
        "Longitude(deg)": 41.9518079787329,
        "Mean Anomaly(deg)": 36.00516157349454,
        "RAAN(deg)": 114.99694418505925,
        "Satellite Name": "Constellation 1 508",
        "Satellite Number": 508,
        "Semi-Major Axis(m)": 7083131.272910544,
        "Time(s)": 54
    },
    {
        "Altitude(m)": 703494.7519400656,
        "Argument of Periapsis(deg)": 0.0032971403434973088,
        "Eccentricity": 0.0,
        "Inclination(deg)": 45.0,
        "Latitude(deg)": 24.683374637678686,
        "Longitude(deg)": 41.99955281235451,
        "Mean Anomaly(deg)": 36.06586271374446,
        "RAAN(deg)": 114.99688759589367,
        "Satellite Name": "Constellation 1 508",
        "Satellite Number": 508,
        "Semi-Major Axis(m)": 7083131.272910544,
        "Time(s)": 55
    },
    {
        "Altitude(m)": 703499.4746107131,
        "Argument of Periapsis(deg)": 0.0033570883497427146,
        "Eccentricity": 0.0,
        "Inclination(deg)": 45.0,
        "Latitude(deg)": 24.72175201766298,
        "Longitude(deg)": 42.04732940297612,
        "Mean Anomaly(deg)": 36.12656385399434,
        "RAAN(deg)": 114.99683100672812,
        "Satellite Name": "Constellation 1 508",
        "Satellite Number": 508,
        "Semi-Major Axis(m)": 7083131.272910544,
        "Time(s)": 56
    }
]